STRATOSAT-TK1-D (RS52SD)
1 57326U 23091BA  25179.16818886  .00015523  00000-0  48444-3 0  9991
2 57326  97.5535 240.9595 0008835 241.5161 118.5191 15.33266877108448
STRATOSAT-TK1-V (RS52SV)
1 57327U 23091BB  25178.70156760  .00194676  00000-0  13369-2 0  9991
2 57327  97.5440 248.8244 0007943 214.7237 145.3509 15.74078246108916
VERONIKA
1 58261U 23174F   25179.22347477  .00142047  00000-0  91526-3 0  9993
2 58261  97.4104 266.5919 0003435 268.3375  91.7497 15.75737550 91615
ENSO
1 58470U 23185J   25179.21343680  .00040580  00000-0  54846-3 0  9991
2 58470  97.3725 254.9540 0005405  23.6811 336.4692 15.57632790 87938
METEOR M2-4
1 59051U 24039A   25179.21532127 -.00000005  00000-0  17100-4 0  9994
2 59051  98.6502 139.0074 0008135 111.0033 249.2016 14.22369644 68944
ZORKIY-2M 2
1 59064U 24039P   25179.21187600  .00034318  00000-0  46013-3 0  9997
2 59064  97.4264 152.6123 0005911 305.9174  54.1532 15.57877994 74512
PARS-1
1 59065U 24039Q   25178.93660942  .00006507  00000-0  18303-3 0  9991
2 59065  97.4405 147.1759 0009884 319.8745  40.1768 15.36796553 74081
SITRO-AIS-25
1 59066U 24039R   25179.20490804  .00003604  00000-0  30396-3 0  9992
2 59066  95.3759 352.6811 0157187 121.9195 239.7427 14.89292547 71967
SITRO-AIS-26
1 59067U 24039S   25179.16544908  .00004315  00000-0  36452-3 0  9992
2 59067  95.3761 352.6112 0157431 122.2857 239.3728 14.89145671 71950
SITRO-AIS-27
1 59068U 24039T   25179.22359958  .00004198  00000-0  35236-3 0  9997
2 59068  95.3761 352.7812 0156707 121.4149 240.2508 14.89470687 71976
SITRO-AIS-28
1 59071U 24039U   25179.21014247  .00003720  00000-0  31238-3 0  9997
2 59071  95.3762 352.7998 0156531 121.3812 240.2833 14.89511189 71971
SONATE-2
1 59112U 24043Q   25178.93071935  .00011782  00000-0  33480-3 0  9991
2 59112  97.5163 310.4846 0011669  54.6271 305.6061 15.36264636 73154
HORS-1
1 57188U 23091Y   25179.15642738  .00005012  00000-0  24148-3 0  9994
2 57188  97.5578 236.7138 0009102 247.5045 112.5226 15.19168134110438
HORS-2
1 57196U 23091AG  25179.16451988  .00006482  00000-0  28875-3 0  9992
2 57196  97.5592 238.0569 0008754 244.3473 115.6859 15.21760402110512
ZORKIY-2M 6
1 59774U 24092B   25179.16419587  .00004890  00000-0  22892-3 0  9991
2 59774  97.6167 296.8588 0009990 347.2539  12.8441 15.20173858 61609
ZORKIY-2M 4
1 59775U 24092C   25178.88266860  .00005739  00000-0  26464-3 0  9996
2 59775  97.6297 297.4619 0010098 351.6926   8.4140 15.20621649 61586
SITRO-AIS-53
1 59776U 24092D   25178.89097774  .00007994  00000-0  34488-3 0  9994
2 59776  97.6245 297.3492 0008536 323.6789  36.3867 15.22783738 61595
SITRO-AIS-54
1 59777U 24092E   25179.08755862  .00008042  00000-0  34727-3 0  9997
2 59777  97.6243 297.5434 0008774 323.1201  36.9431 15.22748889 61625
SITRO-AIS-56
1 59778U 24092F   25178.85287606  .00008073  00000-0  34539-3 0  9993
2 59778  97.6238 297.3697 0008917 324.7866  35.2780 15.23060149 61594
RASSVET 1-4
1 59779U 24092G   25179.18769159  .00000125  00000-0  63692-4 0  9992
2 59779  98.6386 294.3571 0012582 165.8684 194.2854 14.31622172 58247
RASSVET 1-5
1 59780U 24092H   25178.90781192  .00003682  00000-0  13975-2 0  9992
2 59780  98.6387 294.0753 0012618 166.4351 193.7174 14.31614164 58204
RASSVET 1-6
1 59781U 24092J   25178.90656416  .00000119  00000-0  61294-4 0  9994
2 59781  98.6385 294.0780 0012555 166.8522 193.2991 14.31621473 58200
SITRO-AIS-55
1 59809U 24092K   25178.84940229  .00007763  00000-0  33626-3 0  9995
2 59809  97.6238 297.2154 0008947 324.0944  35.9690 15.22653210 61086
MESAT-1
1 60209U 24125G   25178.09441346  .00015413  00000-0  42999-3 0  9995
2 60209  97.2769  29.5208 0020132  76.8441 283.5048 15.36628656 54640
ISTSAT-1
1 60238U 24128D   25179.10313228  .00004441  00000-0  31322-3 0  9997
2 60238  61.9912  12.2532 0052048  61.4307 299.2009 15.05462053 53048
IONOSFERA-M 01
1 61735U 24199A   25179.16319822  .00000023  00000-0  29977-4 0  9996
2 61735  98.7671  50.0913 0002199  84.1365 276.0063 14.22672954 77367
IONOSFERA-M 02
1 61736U 24199B   25179.19803926  .00000014  00000-0  26025-4 0  9994
2 61736  98.7669  50.0406 0000316  76.2822 283.8391 14.22674285 80498
SITRO-AIS-16
1 61737U 24199C   25179.20526351  .00001823  00000-0  17142-3 0  9999
2 61737  97.3567  35.5553 0007154 168.2281 191.9109 14.95013111 78881
SITRO-AIS-15
1 61738U 24199D   25179.19615206  .00001549  00000-0  14624-3 0  9993
2 61738  97.3567  35.5675 0006874 168.4646 191.6735 14.95054018 78885
SITRO-AIS-21
1 61739U 24199E   25179.17698290  .00001192  00000-0  11828-3 0  9993
2 61739  97.3568  35.0020 0013318 166.8659 193.2911 14.93398430 78884
SITRO-AIS-22
1 61740U 24199F   25179.17041977  .00001358  00000-0  13386-3 0  9994
2 61740  97.3570  35.0178 0013364 167.9974 192.1568 14.93473714 79039
SITRO-AIS-24
1 61741U 24199G   25179.17427355  .00001221  00000-0  12111-3 0  9997
2 61741  97.3571  35.0161 0013283 169.5091 190.6410 14.93397839 79000
SITRO-AIS-23
1 61742U 24199H   25179.16430018  .00001517  00000-0  14882-3 0  9992
2 61742  97.3571  35.0263 0013169 168.8783 191.2731 14.93501046 78882
SITRO-AIS-13
1 61743U 24199J   25179.17227503  .00001335  00000-0  12606-3 0  9997
2 61743  97.3569  35.5965 0006557 168.5240 191.6133 14.95249539 79049
CSTP-2.11
1 61744U 24199K   25179.19845660  .00009997  00000-0  30662-3 0  9994
2 61744  97.3538  47.9308 0013854 112.8819 247.3888 15.33866053 79816
POLYTECH UNIVERSE-5 (RS70S)
1 61745U 24199L   25179.20577915  .00011528  00000-0  33495-3 0  9992
2 61745  97.3513  48.1381 0011420 118.4868 241.7528 15.35569825 82976
COLIBRI-S (RS67S)
1 61746U 24199M   25179.21018856  .00008131  00000-0  25704-3 0  9998
2 61746  97.3540  47.7604 0013835 114.3075 245.9614 15.32966510 82945
POLYTECH UNIVERSE-4 (RS71S)
1 61747U 24199N   25179.18561723  .00007972  00000-0  25680-3 0  9996
2 61747  97.3541  47.6394 0013991 113.0338 247.2381 15.32370148 82934
SITRO-AIS-44
1 61748U 24199P   25179.19641908  .00012832  00000-0  36168-3 0  9996
2 61748  97.3504  48.2905 0011121 118.2814 241.9554 15.36498161 82986
VIZARD-ION (RS68S)
1 61749U 24199Q   25179.20729481  .00010076  00000-0  30204-3 0  9995
2 61749  97.3541  48.0715 0013344 112.5600 247.7057 15.34599191 82967
MTUSI-1
1 61750U 24199R   25179.15392648  .00010501  00000-0  31692-3 0  9997
2 61750  97.3511  47.7538 0013255 121.5283 238.7257 15.34373081 82941
VLADIVOSTOK-1
1 61751U 24199S   25179.17393185  .00004823  00000-0  17215-3 0  9992
2 61751  97.3525  46.9896 0012890 127.9682 232.2725 15.29266074 82904
SITRO-AIS-14
1 61752U 24199T   25179.18861648  .00001308  00000-0  12405-3 0  9999
2 61752  97.3567  35.5766 0006687 168.9839 191.1530 14.95102430 82181
HORS-3 (RS81S)
1 61753U 24199U   25179.18495396  .00011069  00000-0  33348-3 0  9997
2 61753  97.3508  47.8542 0012120 120.6300 239.6139 15.34427871 82953
HORS-4 (RS82S)
1 61754U 24199V   25179.17864833  .00011482  00000-0  33753-3 0  9992
2 61754  97.3505  48.0055 0012269 120.4439 239.8019 15.35191790 82967
SITRO-AIS-43
1 61755U 24199W   25179.18801058  .00013112  00000-0  36858-3 0  9995
2 61755  97.3505  48.3013 0011094 117.8462 242.3908 15.36575803 82986
SITRO-AIS-42
1 61756U 24199X   25179.18435779  .00013148  00000-0  36910-3 0  9997
2 61756  97.3506  48.3079 0011131 117.5859 242.6517 15.36617005 82989
HORIZON (RS59S)
1 61757U 24199Y   25179.19155656  .00016868  00000-0  44248-3 0  9997
2 61757  97.3526  48.6737 0012583 109.5455 250.7150 15.38645599 83009
SITRO-AIS-20
1 61758U 24199Z   25179.16109757  .00001826  00000-0  17034-3 0  9997
2 61758  97.3567  35.6039 0006389 169.3057 190.8302 14.95324268 82185
SITRO-AIS-19
1 61759U 24199AA  25179.16007466  .00001888  00000-0  17608-3 0  9997
2 61759  97.3568  35.6065 0006282 170.6773 189.4567 14.95306936 82187
SITRO-AIS-41
1 61760U 24199AB  25179.21022603  .00012461  00000-0  35350-3 0  9998
2 61760  97.3510  48.2818 0011189 117.4811 242.7572 15.36302111 82980
2024-199AC
1 61761U 24199AC  25179.16714041  .00010862  00000-0  32135-3 0  9998
2 61761  97.3503  48.0262 0010978 118.6116 241.6233 15.35020822 82965
ARCTICSAT-1 (RS74S)
1 61762U 24199AD  25179.18135670  .00016195  00000-0  42820-3 0  9993
2 61762  97.3525  48.6826 0012665 108.7977 251.4643 15.38408269 83000
SIT-HSE
1 61763U 24199AE  25178.87976031  .00014706  00000-0  42368-3 0  9996
2 61763  97.3512  47.9605 0010411 122.1064 238.1192 15.35786400 82933
SIT-2086
1 61764U 24199AF  25178.91903817  .00008379  00000-0  23881-3 0  9992
2 61764  97.3510  48.0587 0010250 115.1248 245.1060 15.36279029 79786
MORDOVIA-IOT (RS50S)
1 61765U 24199AG  25178.87260253  .00024407  00000-0  55731-3 0  9997
2 61765  97.3503  49.0716 0011783 106.5064 253.7479 15.42790197 79854
RUZAEVKA-390 (RS44S)
1 61766U 24199AH  25178.90257809  .00020718  00000-0  49693-3 0  9996
2 61766  97.3504  48.8763 0011888 106.5913 253.6641 15.41342108 79847
2024-199AJ (? AHMAT-2)
1 61767U 24199AJ  25178.85951332  .00031329  00000-0  66572-3 0  9998
2 61767  97.3493  49.3613 0011192 104.1954 256.0539 15.44885648 79872
HOD-HOD
1 61768U 24199AK  25179.21030936  .00008730  00000-0  26751-3 0  9993
2 61768  97.3516  47.9968 0009461 123.6108 236.6039 15.33987061 79812
KOSAR
1 61769U 24199AL  25179.20486813  .00009669  00000-0  28837-3 0  9991
2 61769  97.3512  48.1404 0009329 123.7222 236.4911 15.34814534 79821
SITRO-AIS-48
1 61771U 24199AN  25178.87261460  .00011776  00000-0  35818-3 0  9994
2 61771  97.3485  47.2859 0014000 130.6086 229.6377 15.34084654 79747
HYPERVIEW-1G (RS66S)
1 61772U 24199AP  25178.85416921  .00015136  00000-0  43090-3 0  9992
2 61772  97.3505  47.6795 0015167 123.9479 236.3209 15.36091929 79766
SITRO-AIS-47
1 61773U 24199AQ  25178.86307847  .00012127  00000-0  36690-3 0  9995
2 61773  97.3487  47.3033 0014042 131.4975 228.7476 15.34244403 79748
SITRO-AIS-46
1 61774U 24199AR  25178.90208774  .00012059  00000-0  36075-3 0  9991
2 61774  97.3483  47.3927 0014136 131.5281 228.7178 15.34603301 79758
